[{"OBJECT_NAME":"MONOLITH","OBJECT_ID":"2021-068A","EPOCH":"2026-03-09T13:05:30.210720","MEAN_MOTION":15.08010119,"ECCENTRICITY":0.00026796,"INCLINATION":37.022,"RA_OF_ASC_NODE":141.2957,"ARG_OF_PERICENTER":131.6464,"MEAN_ANOMALY":228.4511,"EPHEMERIS_TYPE":0,"CLASSIFICATION_TYPE":"U","NORAD_CAT_ID":49052,"ELEMENT_SET_NO":999,"REV_AT_EPOCH":25222,"BSTAR":0.00053655804,"MEAN_MOTION_DOT":8.348e-5,"MEAN_MOTION_DDOT":0},{"OBJECT_NAME":"STARLINK-3209","OBJECT_ID":"2021-115AE","EPOCH":"2026-03-09T11:28:44.184288","MEAN_MOTION":15.08837439,"ECCENTRICITY":0.00014926,"INCLINATION":53.2181,"RA_OF_ASC_NODE":140.0795,"ARG_OF_PERICENTER":97.8265,"MEAN_ANOMALY":262.2897,"EPHEMERIS_TYPE":0,"CLASSIFICATION_TYPE":"U","NORAD_CAT_ID":49752,"ELEMENT_SET_NO":999,"REV_AT_EPOCH":23564,"BSTAR":-3.8247043e-5,"MEAN_MOTION_DOT":-8.97e-6,"MEAN_MOTION_DDOT":0}]
